FENGYUN 3D              
1 43010U 17072A   26159.19705637  .00000183  00000+0  10812-3 0  9992
2 43010  99.0127 133.4574 0002632  76.0491 284.0977 14.19737916443719
NOAA 20 (JPSS-1)        
1 43013U 17073A   26159.12004583  .00000061  00000+0  49736-4 0  9994
2 43013  98.7770  98.6634 0000476  40.4301 319.6910 14.19510112443180
GOES 17                 
1 43226U 18022A   26159.04078934 -.00000167  00000+0  00000+0 0  9991
2 43226   0.9130  85.8739 0000634   8.7123  87.0479  1.00271990 30339
SENTINEL-3B             
1 43437U 18039A   26159.14294896  .00000107  00000+0  62385-4 0  9993
2 43437  98.6250 226.8048 0000869  77.3993 282.7284 14.26739258422833
FENGYUN 2H              
1 43491U 18050A   26159.07428795 -.00000115  00000+0  00000+0 0  9996
2 43491   3.0070  79.1794 0001516 126.1581 157.3291  1.00271427 29347
METOP-C                 
1 43689U 18087A   26159.12883968  .00000102  00000+0  66666-4 0  9998
2 43689  98.6646 218.8977 0001422 139.5747 220.5536 14.21509778393549
GEO-KOMPSAT-2A          
1 43823U 18100A   26159.17961502 -.00000328  00000+0  00000+0 0  9996
2 43823   0.0496 133.7231 0002330 310.3366   5.4409  1.00270998 27536
METEOR-M2 2             
1 44387U 19038A   26159.18291161 -.00000247  00000+0 -87183-4 0  9994
2 44387  98.9147 146.3358 0002309  61.5914 298.5497 14.24362375360017
ARKTIKA-M 1             
1 47719U 21016A   26153.03917935 -.00000200  00000+0  00000+0 0  9993
2 47719  63.2379  59.8266 7283239 269.8643  14.6915  2.00628509 38489
FENGYUN 3E              
1 49008U 21062A   26159.18192604 -.00000063  00000+0 -88176-5 0  9991
2 49008  98.7497 162.6906 0002741 100.7056 259.4429 14.19903505255307
GOES 18                 
1 51850U 22021A   26159.10272078  .00000112  00000+0  00000+0 0  9998
2 51850   0.0310 151.8940 0000603 348.7076  15.8793  1.00272412  6500
NOAA 21 (JPSS-2)        
1 54234U 22150A   26159.15327826  .00000070  00000+0  53966-4 0  9994
2 54234  98.7058  98.0942 0001131 175.9820 184.1365 14.19563920185267
METEOSAT-12 (MTG-I1)    
1 54743U 22170C   26159.12973264  .00000007  00000+0  00000+0 0  9997
2 54743   0.7276  21.3846 0003422  71.0120 210.4054  1.00271614 12880
TIANMU-1 03             
1 55973U 23039A   26159.18945282  .00013368  00000+0  26624-3 0  9991
2 55973  97.5239 332.8086 0004104 121.3153 238.8498 15.47028533179446
TIANMU-1 04             
1 55974U 23039B   26159.18237958  .00013845  00000+0  27010-3 0  9996
2 55974  97.5175 331.9544 0004720 118.4497 241.7228 15.47616995179457
TIANMU-1 05             
1 55975U 23039C   26159.16978772  .00013923  00000+0  27791-3 0  9994
2 55975  97.5218 332.4067 0003792 135.9564 224.1987 15.46954526179427
TIANMU-1 06             
1 55976U 23039D   26159.18520928  .00013671  00000+0  26761-3 0  9999
2 55976  97.5228 333.0492 0004016 132.7232 227.4356 15.47524318179457
FENGYUN 3G              
1 56232U 23055A   26159.16096668  .00027993  00000+0  42328-3 0  9999
2 56232  49.9935  32.5331 0005551 163.1112 197.0042 15.54414771178601
METEOR-M2 3             
1 57166U 23091A   26159.17515704 -.00000008  00000+0  15320-4 0  9996
2 57166  98.6085 214.3375 0003833 179.4696 180.6488 14.24046065153238
TIANMU-1 07             
1 57399U 23101A   26159.20407531  .00007149  00000+0  25093-3 0  9997
2 57399  97.2596 210.0794 0003569 140.2937 219.8565 15.29705553160279
TIANMU-1 08             
1 57400U 23101B   26159.17074256  .00007028  00000+0  24666-3 0  9991
2 57400  97.2585 209.8187 0005122 137.1691 222.9950 15.29709866160264
TIANMU-1 09             
1 57401U 23101C   26159.15433013  .00007204  00000+0  25259-3 0  9995
2 57401  97.2544 209.2230 0003941 147.5695 212.5789 15.29737548160262
TIANMU-1 10             
1 57402U 23101D   26159.18721318  .00005867  00000+0  20636-3 0  9994
2 57402  97.2623 210.2965 0005532 150.1852 209.9705 15.29706466160264
FENGYUN 3F              
1 57490U 23111A   26159.16605281  .00000059  00000+0  47986-4 0  9996
2 57490  98.6836 229.3426 0001575  99.3678 260.7677 14.19937661147582
ARKTIKA-M 2             
1 58584U 23198A   26154.30372208  .00000150  00000+0  00000+0 0  9990
2 58584  63.2209 155.9142 6898549 267.4684  18.7857  2.00591941 18047
TIANMU-1 11             
1 58645U 23205A   26159.14112909  .00006535  00000+0  24974-3 0  9997
2 58645  97.3453 180.8405 0009981  46.3387 313.8677 15.26903317136142
TIANMU-1 12             
1 58646U 23205B   26159.11127284  .00006526  00000+0  24981-3 0  9995
2 58646  97.3441 180.5687 0007820  33.9552 326.2186 15.26865212136127
TIANMU-1 13             
1 58647U 23205C   26159.14258891  .00006676  00000+0  25666-3 0  9995
2 58647  97.3469 180.8708 0007013  15.0172 345.1274 15.26719790136125
TIANMU-1 14             
1 58648U 23205D   26159.12805934  .00006715  00000+0  25774-3 0  9994
2 58648  97.3405 180.0454 0007990  18.3634 341.7891 15.26764653136124
TIANMU-1 19             
1 58660U 23208A   26159.13976138  .00008963  00000+0  29767-3 0  9990
2 58660  97.4492 275.3952 0004589   5.5356 354.5935 15.31438804135948
TIANMU-1 20             
1 58661U 23208B   26159.18458686  .00007163  00000+0  22972-3 0  9991
2 58661  97.4434 276.0662 0006840   8.2382 351.8971 15.32628914136048
