OBJECT_NAME,OBJECT_ID,EPOCH,MEAN_MOTION,ECCENTRICITY,INCLINATION,RA_OF_ASC_NODE,ARG_OF_PERICENTER,MEAN_ANOMALY,EPHEMERIS_TYPE,CLASSIFICATION_TYPE,NORAD_CAT_ID,ELEMENT_SET_NO,REV_AT_EPOCH,BSTAR,MEAN_MOTION_DOT,MEAN_MOTION_DDOT
FENGYUN 3D,2017-072A,2026-06-08T04:43:45.670368,14.19737916,.0002632,99.0127,133.4574,76.0491,284.0977,0,U,43010,999,44371,.10812E-3,.183E-5,0
NOAA 20 (JPSS-1),2017-073A,2026-06-08T02:52:51.959712,14.19510112,.0000476,98.7770,98.6634,40.4301,319.6910,0,U,43013,999,44318,.49736E-4,.61E-6,0
GOES 17,2018-022A,2026-06-08T00:58:44.198976,1.00271990,.0000634,0.9130,85.8739,8.7123,87.0479,0,U,43226,999,3033,0,-.167E-5,0
SENTINEL-3B,2018-039A,2026-06-08T03:25:50.790144,14.26739258,.0000869,98.6250,226.8048,77.3993,282.7284,0,U,43437,999,42283,.62385E-4,.107E-5,0
FENGYUN 2H,2018-050A,2026-06-08T01:46:58.478880,1.00271427,.0001516,3.0070,79.1794,126.1581,157.3291,0,U,43491,999,2934,0,-.115E-5,0
METOP-C,2018-087A,2026-06-08T03:05:31.748352,14.21509778,.0001422,98.6646,218.8977,139.5747,220.5536,0,U,43689,999,39354,.66666E-4,.102E-5,0
GEO-KOMPSAT-2A,2018-100A,2026-06-08T04:18:38.737728,1.00270998,.000233,0.0496,133.7231,310.3366,5.4409,0,U,43823,999,2753,0,-.328E-5,0
METEOR-M2 2,2019-038A,2026-06-08T04:23:23.563104,14.24362375,.0002309,98.9147,146.3358,61.5914,298.5497,0,U,44387,999,36001,-.87183E-4,-.247E-5,0
ARKTIKA-M 1,2021-016A,2026-06-02T00:56:25.095840,2.00628509,.72832396,63.2379,59.8266,269.8643,14.6915,0,U,47719,999,3848,0,-.2E-5,0
FENGYUN 3E,2021-062A,2026-06-08T04:21:58.409856,14.19903505,.0002741,98.7497,162.6906,100.7056,259.4429,0,U,49008,999,25530,-.88176E-5,-.63E-6,0
GOES 18,2022-021A,2026-06-08T02:27:55.075392,1.00272412,.0000603,0.0310,151.8940,348.7076,15.8793,0,U,51850,999,650,0,.112E-5,0
NOAA 21 (JPSS-2),2022-150A,2026-06-08T03:40:43.241664,14.19563920,.0001131,98.7058,98.0942,175.9820,184.1365,0,U,54234,999,18526,.53966E-4,.7E-6,0
METEOSAT-12 (MTG-I1),2022-170C,2026-06-08T03:06:48.900096,1.00271614,.0003422,0.7276,21.3846,71.0120,210.4054,0,U,54743,999,1288,0,.7E-7,0
TIANMU-1 03,2023-039A,2026-06-08T04:32:48.723648,15.47028533,.0004104,97.5239,332.8086,121.3153,238.8498,0,U,55973,999,17944,.26624E-3,.13368E-3,0
TIANMU-1 04,2023-039B,2026-06-08T04:22:37.595712,15.47616995,.000472,97.5175,331.9544,118.4497,241.7228,0,U,55974,999,17945,.2701E-3,.13845E-3,0
TIANMU-1 05,2023-039C,2026-06-08T04:04:29.659008,15.46954526,.0003792,97.5218,332.4067,135.9564,224.1987,0,U,55975,999,17942,.27791E-3,.13923E-3,0
TIANMU-1 06,2023-039D,2026-06-08T04:26:42.081792,15.47524318,.0004016,97.5228,333.0492,132.7232,227.4356,0,U,55976,999,17945,.26761E-3,.13671E-3,0
FENGYUN 3G,2023-055A,2026-06-08T03:51:47.521152,15.54414771,.0005551,49.9935,32.5331,163.1112,197.0042,0,U,56232,999,17860,.42328E-3,.27993E-3,0
METEOR-M2 3,2023-091A,2026-06-08T04:12:13.568256,14.24046065,.0003833,98.6085,214.3375,179.4696,180.6488,0,U,57166,999,15323,.1532E-4,-.8E-7,0
TIANMU-1 07,2023-101A,2026-06-08T04:53:52.106784,15.29705553,.0003569,97.2596,210.0794,140.2937,219.8565,0,U,57399,999,16027,.25093E-3,.7149E-4,0
TIANMU-1 08,2023-101B,2026-06-08T04:05:52.157184,15.29709866,.0005122,97.2585,209.8187,137.1691,222.9950,0,U,57400,999,16026,.24666E-3,.7028E-4,0
TIANMU-1 09,2023-101C,2026-06-08T03:42:14.123232,15.29737548,.0003941,97.2544,209.2230,147.5695,212.5789,0,U,57401,999,16026,.25259E-3,.7204E-4,0
TIANMU-1 10,2023-101D,2026-06-08T04:29:35.218752,15.29706466,.0005532,97.2623,210.2965,150.1852,209.9705,0,U,57402,999,16026,.20636E-3,.5867E-4,0
FENGYUN 3F,2023-111A,2026-06-08T03:59:06.962784,14.19937661,.0001575,98.6836,229.3426,99.3678,260.7677,0,U,57490,999,14758,.47986E-4,.59E-6,0
ARKTIKA-M 2,2023-198A,2026-06-03T07:17:21.587712,2.00591941,.68985494,63.2209,155.9142,267.4684,18.7857,0,U,58584,999,1804,0,.15E-5,0
TIANMU-1 11,2023-205A,2026-06-08T03:23:13.553376,15.26903317,.0009981,97.3453,180.8405,46.3387,313.8677,0,U,58645,999,13614,.24974E-3,.6535E-4,0
TIANMU-1 12,2023-205B,2026-06-08T02:40:13.973376,15.26865212,.000782,97.3441,180.5687,33.9552,326.2186,0,U,58646,999,13612,.24981E-3,.6526E-4,0
TIANMU-1 13,2023-205C,2026-06-08T03:25:19.681824,15.26719790,.0007013,97.3469,180.8708,15.0172,345.1274,0,U,58647,999,13612,.25666E-3,.6676E-4,0
TIANMU-1 14,2023-205D,2026-06-08T03:04:24.326976,15.26764653,.000799,97.3405,180.0454,18.3634,341.7891,0,U,58648,999,13612,.25774E-3,.6715E-4,0
TIANMU-1 19,2023-208A,2026-06-08T03:21:15.383232,15.31438804,.0004589,97.4492,275.3952,5.5356,354.5935,0,U,58660,999,13594,.29767E-3,.8963E-4,0
TIANMU-1 20,2023-208B,2026-06-08T04:25:48.304704,15.32628914,.000684,97.4434,276.0662,8.2382,351.8971,0,U,58661,999,13604,.22972E-3,.7163E-4,0
